XRISM                   
1 57800U 23137A   24272.83402232  .00013148  00000+0  94586-3 0  9998
2 57800  31.0033  72.0538 0009036 152.9597 207.1511 15.03030294 58280
